STARLINK-30868          
1 58390U 23178S   25325.88381189  .00000825  00000+0  40006-4 0  9997
2 58390  53.1598 141.9787 0001304  88.0333 272.0817 15.30189368113385
STARLINK-30916          
1 58391U 23178T   25325.76687976  .00000790  00000+0  38807-4 0  9995
2 58391  53.1598 142.5665 0001308  90.2883 269.8267 15.30193379113365
STARLINK-30939          
1 58393U 23178V   25325.87431647 -.00000706  00000+0 -11724-4 0  9999
2 58393  53.1595 141.9194 0001225  87.6063 272.5078 15.30187768113256
STARLINK-30887          
1 58394U 23178W   25325.91015494  .00003565  00000+0  13237-3 0  9997
2 58394  53.1611 141.9630 0000940  74.3990 285.7114 15.30215162113365
STARLINK-30934          
1 58395U 23178X   25325.88701231 -.00004250  00000+0 -13157-3 0  9990
2 58395  53.1594 142.0731 0001562  50.7953 309.3186 15.30171025113314
MALLIGYONG-1            
1 58400U 23179A   25326.51947126  .00004262  00000+0  19520-3 0  9995
2 58400  97.3262 208.7261 0010061  43.2093 316.9930 15.20967596111322
STARLINK-30964          
1 58402U 23180A   25326.22865822  .00000527  00000+0  54080-4 0  9990
2 58402  43.0055 279.6419 0001272 258.2961 101.7739 15.02533744111422
STARLINK-30844          
1 58403U 23180B   25325.88638985  .00001210  00000+0  10463-3 0  9996
2 58403  43.0055 282.2346 0001219 260.5568  99.5137 15.02541665111250
STARLINK-30876          
1 58404U 23180C   25326.28193588  .00002983  00000+0  23586-3 0  9995
2 58404  43.0069 280.0447 0001299 275.7317  84.3377 15.02529505111428
STARLINK-30952          
1 58405U 23180D   25326.27860102  .00002070  00000+0  16819-3 0  9996
2 58405  43.0057 280.0146 0000600 298.0884  61.9898 15.02541776111315
STARLINK-30925          
1 58406U 23180E   25326.27526980  .00004011  00000+0  31173-3 0  9997
2 58406  43.0043 279.9912 0000836 272.6441  87.4306 15.02545272111319
STARLINK-30954          
1 58407U 23180F   25326.22532448  .00001093  00000+0  95922-4 0  9999
2 58407  42.9992 279.6192 0000447 295.3920  64.6876 15.02540147111427
STARLINK-30906          
1 58408U 23180G   25326.23209108  .00000360  00000+0  41707-4 0  9993
2 58408  43.0046 280.3646 0001200 287.9010  72.1701 15.02533353111307
STARLINK-30940          
1 58409U 23180H   25325.54662657  .00001871  00000+0  81349-4 0  9993
2 58409  43.0008 158.1091 0001454 279.6900  80.3786 15.25912652112795
STARLINK-30933          
1 58410U 23180J   25325.95784407  .00001313  00000+0  57214-4 0  9993
2 58410  43.0020 155.1540 0000789 269.0360  91.0401 15.27585351112865
STARLINK-30919          
1 58411U 23180K   25326.23727859  .00002003  00000+0  16330-3 0  9994
2 58411  43.0034 278.7809 0000999 281.7343  78.3387 15.02543520111333
STARLINK-30924          
1 58412U 23180L   25325.92972072  .00001519  00000+0  64704-4 0  9999
2 58412  43.0014 155.7905 0001201 249.9693 110.1029 15.27583223112851
STARLINK-30931          
1 58413U 23180M   25325.88556100  .00000484  00000+0  50867-4 0  9990
2 58413  43.0033 269.3711 0000912 270.1884  89.8854 15.02539283111516
STARLINK-30922          
1 58414U 23180N   25326.25529257  .00005523  00000+0  42360-3 0  9993
2 58414  43.0041 279.8262 0001393 282.9682  77.1005 15.02534946111423
STARLINK-30949          
1 58415U 23180P   25326.25862387  .00006916  00000+0  52659-3 0  9997
2 58415  43.0039 279.8386 0000849 265.0840  94.9905 15.02529801111421
STARLINK-30967          
1 58416U 23180Q   25325.92955816  .00000722  00000+0  68503-4 0  9996
2 58416  43.0049 281.6826 0001235 268.4471  91.6230 15.02539829111370
STARLINK-30955          
1 58417U 23180R   25326.23530892  .00000159  00000+0  26823-4 0  9998
2 58417  43.0042 279.6778 0001010 274.7790  85.2937 15.02540999111421
STARLINK-30895          
1 58418U 23180S   25325.91624426  .00001264  00000+0  10863-3 0  9994
2 58418  43.0024 281.5952 0000913 271.7616  88.3122 15.02538881111262
STARLINK-30917          
1 58419U 23180T   25326.04317187 -.00000663  00000+0 -14569-4 0  9995
2 58419  43.0006 191.6814 0001307 268.6624  91.4077 15.27584583112434
STARLINK-30899          
1 58420U 23180U   25326.24198051 -.00000613  00000+0 -30326-4 0  9990
2 58420  43.0099 279.7468 0001827 292.5016  67.5633 15.02528683111319
STARLINK-30902          
1 58421U 23180V   25326.28846966  .00000281  00000+0  35859-4 0  9995
2 58421  43.0046 279.2286 0001206 268.8457  91.2248 15.02539917111320
STARLINK-30912          
1 58422U 23180W   25325.90610174  .00002153  00000+0  87715-4 0  9992
2 58422  43.0019 159.0004 0001350 260.5348  99.5351 15.27585330112810
STARLINK-30900          
1 58423U 23180X   25326.25196707  .00003860  00000+0  30086-3 0  9997
2 58423  43.0077 279.7640 0001752 263.3697  96.6946 15.02514764111313
STARLINK-30908          
1 58424U 23180Y   25326.23395088 -.00000260  00000+0 -41767-5 0  9992
2 58424  43.0041 278.7339 0000918 279.6154  80.4585 15.02537129111433
CHUANGXIN 20A (CX-20A)  
1 58425U 23181A   25326.47907579 -.00000034  00000+0  16837-3 0  9990
2 58425  49.9608   4.7089 0013283 356.5681   3.5103 13.41474039 98006
CHUANGXIN 20B (CX-20B)  
1 58426U 23181B   25326.56041078 -.00000045  00000+0  14808-3 0  9992
2 58426  49.9606   4.4614 0011282 359.6467   0.4400 13.41464950 98006
CHUANGXIN 20C (CX-20C)  
1 58427U 23181C   25326.55695817 -.00000043  00000+0  15218-3 0  9992
2 58427  49.9606   4.4447 0011305 347.8012  12.2589 13.41470531 98014
COSMOS 2572             
1 58435U 23182A   25324.81220725 -.00000663  18884-5 -21693-6 0  9992
2 58435  96.6927  67.1297 0013704 229.7190 130.2888 15.90099473115344
STARLINK-30869          
1 58437U 23183A   25326.19909677 -.00002586  00000+0 -17649-3 0  9992
2 58437  43.0028 267.5024 0001091 252.4435 107.6288 15.02526034110549
STARLINK-30969          
1 58438U 23183B   25326.20245045 -.00001965  00000+0 -13052-3 0  9991
2 58438  43.0020 267.5296 0000650 292.8721  67.2053 15.02516305110540
STARLINK-30951          
1 58439U 23183C   25326.26223329  .00002675  00000+0  21300-3 0  9991
2 58439  43.0036 267.1153 0001116 274.5770  85.4945 15.02537588110554
STARLINK-30950          
1 58440U 23183D   25326.39381027  .00000031  00000+0  10651-4 0  9999
2 58440  43.0009  91.0766 0000696 225.2378 134.8417 15.27574573112624
STARLINK-30942          
1 58441U 23183E   25326.24559036  .00001883  00000+0  15438-3 0  9994
2 58441  43.0044 266.9961 0001282 276.1380  83.9317 15.02541594110557
STARLINK-30959          
1 58442U 23183F   25326.23892958 -.00002063  00000+0 -13764-3 0  9990
2 58442  43.0038 266.9443 0000758 276.7284  83.3472 15.02550080110558
STARLINK-30971          
1 58443U 23183G   25325.85005008  .00000329  00000+0  39436-4 0  9996
2 58443  43.0033 269.1792 0000958 271.5085  88.5648 15.02539690110499
STARLINK-30963          
1 58444U 23183H   25326.23559971  .00000435  00000+0  47261-4 0  9996
2 58444  43.0035 266.9152 0000844 280.1396  79.9351 15.02538021110551
STARLINK-30961          
1 58445U 23183J   25326.23226514  .00003120  00000+0  24596-3 0  9990
2 58445  43.0032 266.8893 0000863 270.7908  89.2835 15.02528981110550
STARLINK-30975          
1 58446U 23183K   25325.88113213  .00002020  00000+0  16456-3 0  9996
2 58446  43.0008 269.3993 0001350 248.4424 111.6274 15.02540807110514
STARLINK-30976          
1 58447U 23183L   25326.22229377 -.00001042  00000+0 -62051-4 0  9993
2 58447  43.0052 266.8482 0001536 266.8075  93.2591 15.02532939110559
STARLINK-30926          
1 58448U 23183M   25325.88655934  .00000656  00000+0  63594-4 0  9998
2 58448  43.0026 268.5552 0000886 263.6953  96.3789 15.02538239110502
STARLINK-30943          
1 58449U 23183N   25325.82071178  .00001712  00000+0  14179-3 0  9993
2 58449  43.0021 243.7819 0001157 278.6313  81.4398 15.02541822110780
STARLINK-30946          
1 58450U 23183P   25326.27223463 -.00000302  00000+0 -72814-5 0  9999
2 58450  43.0075 267.1924 0001432 269.7757  90.2921 15.02532392110554
STARLINK-30944          
1 58451U 23183Q   25326.22895972  .00012979  00000+0  97565-3 0  9994
2 58451  43.0011 266.8694 0000128 267.7269  92.3559 15.02474594110528
STARLINK-30928          
1 58452U 23183R   25326.22560582  .00002433  00000+0  19509-3 0  9997
2 58452  43.0029 266.8418 0001328 267.0989  92.9701 15.02544039110557
STARLINK-30957          
1 58453U 23183S   25325.88002355  .00004737  00000+0  36542-3 0  9993
2 58453  43.0014 269.4023 0000740 269.6923  90.3834 15.02542316110494
STARLINK-30966          
1 58454U 23183T   25325.21191499  .00000710  00000+0  67632-4 0  9991
2 58454  43.0023 272.9878 0000991 254.2311 105.8422 15.02538019110390
STARLINK-30935          
1 58455U 23183U   25326.25557635  .00001230  00000+0  10618-3 0  9994
2 58455  43.0065 267.0560 0002229 246.1035 113.9574 15.02525635110555
STARLINK-30960          
1 58456U 23183V   25325.04524339  .00013711  00000+0  51276-3 0  9998
2 58456  43.0000 214.7914 0001705 261.9341  98.1317 15.27196391111066
STARLINK-30958          
1 58457U 23183W   25326.24003932  .00000449  00000+0  48328-4 0  9992
2 58457  43.0030 266.9484 0000751 272.4619  87.6138 15.02541502110554
STARLINK-30962          
1 58458U 23183X   25325.88323470  .00000386  00000+0  43645-4 0  9991
2 58458  43.0069 268.5745 0001100 270.9241  89.1475 15.02537668110502
STARLINK-30977          
1 58459U 23183Y   25326.25224613  .00001258  00000+0  10818-3 0  9997
2 58459  43.0031 267.0357 0001442 282.2357  77.8323 15.02528779110552
GNOMES-4                
1 58462U 23185A   25326.49696633  .00004904  00000+0  40893-3 0  9991
2 58462  97.5229  25.9196 0010973 265.6313  94.3656 14.98997273108303
KORSAT-7                
1 58463U 23185B   25326.51752557  .00002630  00000+0  20841-3 0  9998
2 58463  97.6332  29.5875 0023609 309.3796  50.5337 15.01215031108282
KOYOH                   
1 58464U 23185C   25326.54795875  .00008471  00000+0  45524-3 0  9996
2 58464  97.5577  34.8406 0006187 310.0844  49.9845 15.15128263108806
